<?xml version="1.0" ?>
<data>
  <metar>KOKC 130152Z 15023G30KT 10SM OVC012 21/18 A2972 RMK AO2 PK WND 15030/0152 SLP055 T02110183</metar>
  <location>KOKC</location>
  <date day="13" time="0152" unit="Z">13th at 01:52z</date>
  <auto>No</auto>
  <wind direction="SSE" speed="23" gust="30" unit="kts">South-Southeast at 23kts (26.47mph), gusting at 30kts (34.52mph).</wind>
  <visibility value="10" unit="SM">10 Statute Miles</visibility>
  <rvr runway="None" value="None" unit="None">N/A</rvr>
  <conditions value="None">N/A</conditions>
  <cloudcoverage>
    Overcast at 1200 feet.
    <layer coverage="Overcast" height="1200" unit="feet"/>
    <layer coverage="None" height="None" unit="feet"/>
    <layer coverage="None" height="None" unit="feet"/>
    <layer coverage="None" height="None" unit="feet"/>
  </cloudcoverage>
  <temperature value="21" unit="C">21째C (69.8째F)</temperature>
  <dewpoint value="18" unit="C">18째C (64.4째F)</dewpoint>
  <altimeter value="29.72" unit="inHg">29.72 inHg (1006.43 mb).</altimeter>
  <remarks>RMK AO2 PK WND 15030/0152 SLP055 T02110183</remarks>
</data>
