<?xml version="1.0" ?>
<data>
  <metar>KMPV 121351Z AUTO 00000KT 1/4SM FG VV001 12/11 A3020 RMK AO2 SLP229 T01170111</metar>
  <location>KMPV</location>
  <date day="12" time="1351" unit="Z">12th at 13:51z</date>
  <auto>Yes</auto>
  <wind direction="Calm" speed="0" gust="0" unit="kts">Calm (0.00mph).</wind>
  <visibility value="Vertical Visibility: 100" unit="ft">Vertical Visibility: 100 Feet</visibility>
  <rvr runway="None" value="None" unit="None">N/A</rvr>
  <conditions value="FG">Fog</conditions>
  <cloudcoverage>
    N/A
    <layer coverage="None" height="None" unit="feet"/>
    <layer coverage="None" height="None" unit="feet"/>
    <layer coverage="None" height="None" unit="feet"/>
    <layer coverage="None" height="None" unit="feet"/>
  </cloudcoverage>
  <temperature value="12" unit="C">12째C (53.6째F)</temperature>
  <dewpoint value="11" unit="C">11째C (51.8째F)</dewpoint>
  <altimeter value="30.20" unit="inHg">30.20 inHg</altimeter>
  <remarks>RMK AO2 SLP229 T01170111</remarks>
</data>
