<?xml version="1.0" ?>
<data>
	<metar value="KTPA 061453Z 15007KT 10SM SCT160 29/23 A3007 RMK AO2 SLP182 T02890233 51009"/>
	<location value="KTPA"/>
	<time day="06" time="1453" unit="Z"/>
	<automated value="False"/>
	<wind>
		<direction value="SSE" angle="150" unit="degrees"/>
		<speed value="7" unit="KT"/>
		<gust value="0" unit="KT"/>
	</wind>
	<visibility value="10" unit="SM">
		<rvr runway="None" distance="None" trend="None"/>
	</visibility>
	<wxconditions values="None"/>
	<cloudcoverage>
		<layer coverage="Scattered" height="16000" unit="Feet"/>
		<layer coverage="None" height="None" unit="Feet"/>
		<layer coverage="None" height="None" unit="Feet"/>
		<layer coverage="None" height="None" unit="Feet"/>
	</cloudcoverage>
	<temperature value="29" unit="C"/>
	<dewpoint value="23" unit="C"/>
	<altimeter value="30.07" unit="In. Hg"/>
	<remarks value="RMK AO2 SLP182 T02890233 51009"/>
</data>
<!--XML file created by METAR parser.-->
