<?xml version="1.0" ?>
<data>
  <metar>CYHU 121500Z AUTO 20007KT 9SM 20/15 A3009 RMK CLD MISG SLP191 DENSITY ALT 600FT</metar>
  <location>CYHU</location>
  <date day="12" time="1500" unit="Z">12th at 15:00z</date>
  <auto>Yes</auto>
  <wind direction="SSW" speed="7" gust="0" unit="kts">South-Southwest at 7kts (8.06mph).</wind>
  <visibility value="None" unit="None">N/A</visibility>
  <rvr runway="None" value="None" unit="None">N/A</rvr>
  <conditions value="None">N/A</conditions>
  <cloudcoverage>
    N/A
    <layer coverage="None" height="None" unit="feet"/>
    <layer coverage="None" height="None" unit="feet"/>
    <layer coverage="None" height="None" unit="feet"/>
    <layer coverage="None" height="None" unit="feet"/>
  </cloudcoverage>
  <temperature value="20" unit="C">20째C (68.0째F)</temperature>
  <dewpoint value="15" unit="C">15째C (59.0째F)</dewpoint>
  <altimeter value="30.09" unit="inHg">30.09 inHg</altimeter>
  <remarks>RMK CLD MISG SLP191 DENSITY ALT 600FT</remarks>
</data>
